GLOBALSTAR M035         
1 25851U 99037A   25185.87112475 -.00000089  00000+0 -95216-3 0  9999
2 25851  51.9980  15.5289 0013975  13.6573  92.5802 11.04538454 98216
GLOBALSTAR M032         
1 25852U 99037B   25185.75014773 -.00000015  00000+0  16544-2 0  9993
2 25852  51.9911 199.7848 0012224 196.6101 163.4300 11.19062122136755
GLOBALSTAR M051         
1 25853U 99037C   25185.64472974 -.00000085  00000+0 -31699-3 0  9990
2 25853  51.9821 358.7782 0000382 154.9907 205.0922 11.42204650134383
GLOBALSTAR M030         
1 25854U 99037D   25185.91015500 -.00000052  00000+0  48466-3 0  9992
2 25854  51.9846 163.1162 0003078  72.3379 287.7774 11.55108828152096
GLOBALSTAR M048         
1 25872U 99041A   25185.57967772 -.00000064  00000+0  16612-3 0  9997
2 25872  51.9384 294.6431 0013576 212.7140 243.1883 11.33857680126958
GLOBALSTAR M026         
1 25873U 99041B   25185.84086166  .00000025  00000+0  32936-2 0  9999
2 25873  51.9995 133.3695 0002261 312.2424  72.3828 11.06841262150449
GLOBALSTAR M043         
1 25874U 99041C   25185.92561932 -.00000088  00000+0 -59782-3 0  9998
2 25874  51.9422  42.1712 0013473 345.4862  27.8950 11.25695364124873
GLOBALSTAR M028         
1 25875U 99041D   25185.25693936 -.00000075  00000+0  16872-3 0  9993
2 25875  51.9607 142.1650 0063375 108.2180 252.5592 12.50584407192312
